INMARSAT 4-F2 (SOUTHPA*)
1 28899U 05044A   26103.25198617 -.00000254  00000+0  00000+0 0  9990
2 28899   5.0073  43.7389 0003631   0.3409  31.5746  1.00270884 74878
GSAT-8 (GAGAN/PRN 127)  
1 37605U 11022A   26103.17153419  .00000089  00000+0  00000+0 0  9995
2 37605   1.9619  82.5912 0005393 224.6424  10.9596  1.00271609 52564
LUCH 5A (SDCM/PRN 140)  
1 37951U 11074B   26103.19372095 -.00000040  00000+0  00000+0 0  9999
2 37951   8.5885  74.7479 0002855 291.9123  71.3819  1.00271695 52407
SES-5 (EGNOS/PRN 136)   
1 38652U 12036A   26103.17961551  .00000037  00000+0  00000+0 0  9991
2 38652   0.0610 301.4120 0001858  83.1807 246.4255  1.00273365 43803
GSAT-10 (GAGAN/PRN 128) 
1 38779U 12051B   26102.99975174 -.00000162  00000+0  00000+0 0  9993
2 38779   0.0629 264.9327 0006613 175.2854 203.8955  1.00271938 49448
LUCH 5B (SDCM/PRN 125)  
1 38977U 12061A   26103.08616715 -.00000127  00000+0  00000+0 0  9999
2 38977  10.3439  50.5119 0001844 222.9460 302.5730  1.00273377 48955
ASTRA 5B (EGNOS/PRN 123)
1 39617U 14011B   26103.16711179  .00000140  00000+0  00000+0 0  9991
2 39617   0.0765 303.1920 0003061  58.0169 283.8172  1.00270262 44013
LUCH 5V (SDCM/PRN 141)  
1 39727U 14023A   26102.96535475 -.00000260  00000+0  00000+0 0  9990
2 39727   4.9725  70.3751 0003055 331.1348 241.8307  1.00267541 43701
GSAT-15 (GAGAN/PRN 139) 
1 41028U 15065A   26103.03650694 -.00000255  00000+0  00000+0 0  9998
2 41028   0.0220 106.3341 0003025 306.0174 255.5425  1.00272569 38146
EUTELSAT 117 WEST B (W*)
1 41589U 16038B   26103.16364528 -.00000009  00000+0  00000+0 0  9990
2 41589   0.0137  69.8579 0000242 244.8186 188.5929  1.00271091 36018
SES-15 (WAAS/PRN 133)   
1 42709U 17026A   26103.16919685  .00000063  00000+0  00000+0 0  9992
2 42709   0.0287 318.7462 0000634  63.0637 111.3182  1.00269956  6786
QZS-2 (QZSS/PRN 194)    
1 42738U 17028A   26102.25959126 -.00000190  00000+0  00000+0 0  9991
2 42738  39.5318 244.1140 0741429 270.6872 278.4182  1.00251508  6965
QZS-3 (QZSS/PRN 199)    
1 42917U 17048A   26103.21919675 -.00000345  00000+0  00000+0 0  9996
2 42917   0.0782 129.8496 0002037 257.4840  19.9445  1.00266606 31602
QZS-4 (QZSS/PRN 195)    
1 42965U 17062A   26102.54489456 -.00000291  00000+0  00000+0 0  9999
2 42965  40.1483 344.3236 0746018 270.5597 282.4606  1.00270052 31148
BEIDOU-3 G1 (PRN 130)   
1 43683U 18085A   26103.26288124 -.00000061  00000+0  00000+0 0  9997
2 43683   2.9089  99.1350 0012799 291.9114  61.0189  1.00649304 27401
EUTELSAT 5 WEST B (EGN*)
1 44624U 19067A   26103.20322625 -.00000039  00000+0  00000+0 0  9998
2 44624   0.0711  25.0148 0003362   5.5442 239.0009  1.00271717 23784
BEIDOU-3 G2 (PRN 144)   
1 45344U 20017A   26103.03373360 -.00000135  00000+0  00000+0 0  9995
2 45344   2.7329  46.2664 0002904 346.8237 260.3285  1.00271427 22601
BEIDOU-3 G3 (PRN 143)   
1 45807U 20040A   26103.82417838 -.00000348  00000+0  00000+0 0  9997
2 45807   2.2884  67.2755 0003783 328.7718 213.1071  1.00276939 21420
GALAXY 30 (WAAS/PRN 135)
1 46114U 20056C   26103.16919685  .00000000  00000+0  00000+0 0  9994
2 46114   0.0182 202.4016 0002186 188.0538 106.8209  1.00270800 20640
QZS-1R (QZSS/PRN 196)   
1 49336U 21096A   26102.26236459 -.00000188  00000+0  00000+0 0  9997
2 49336  37.3267  80.5548 0750491 270.5203  79.4629  1.00278146 16340
QZS-6 (QZSS/PRN 200)    
1 62876U 25023A   26103.24350345 -.00000231  00000+0  00000+0 0  9994
2 62876   0.0161 286.4808 0002037 107.4730 345.6893  1.00271128  4306
